COSMOS 1933             
1 18958U 88020A   25363.37325716  .00007302  00000+0  36521-3 0  9993
2 18958  82.5135 320.4426 0006501  85.9656 274.2321 15.17260064 39565
SL-3 R/B                
1 19046U 88032B   25363.46390819  .00007522  00000+0  35976-3 0  9998
2 19046  97.5095 342.0718 0028259 116.7643 243.6488 15.18922630 41441
SL-16 R/B               
1 19120U 88039B   25363.02408335 -.00000035  00000+0  63665-5 0  9994
2 19120  71.0124 217.9673 0019540  88.3934 271.9429 14.19599855948358
COSMOS 1953             
1 19210U 88050A   25363.34859605  .00008063  00000+0  30114-3 0  9991
2 19210  82.5080 228.9139 0012536  18.6006 341.5688 15.27141359 27046
SL-8 R/B                
1 19257U 88053B   25362.88281191  .00000374  00000+0  12981-3 0  9991
2 19257  74.0463 242.9683 0018990  80.9972 359.2682 14.38869820966416
COSMOS 1975             
1 19573U 88093A   25363.03671835  .00011409  00000+0  43194-3 0  9993
2 19573  82.5195 188.5107 0012845  61.5476 298.7055 15.26719597  8620
SL-14 R/B               
1 19574U 88093B   25363.34464244  .00000814  00000+0  91107-4 0  9998
2 19574  82.5320 108.0856 0019216 270.9632 149.3051 14.85569152990595
SL-16 R/B               
1 19650U 88102B   25363.26972666 -.00000073  00000+0 -12677-4 0  9991
2 19650  71.0007 299.6626 0012095 123.4837 236.7444 14.16142898916924
INTERCOSMOS 24          
1 20261U 89080A   25363.50687190  .00000876  00000+0  24869-3 0  9993
2 20261  82.6061 150.0526 1189039  95.6425 278.1163 12.59467355657965
SL-14 R/B               
1 20262U 89080C   25362.98529491  .00000435  00000+0  12877-3 0  9991
2 20262  82.5911 218.5910 1230315 346.4645  10.6011 12.50426280651318
DELTA 1 R/B             
1 20323U 89089B   25363.47067265  .00000567  00000+0  14924-3 0  9990
2 20323  97.0741 217.0559 0068756 345.7559  14.1698 14.50587248885553
ARIANE 40 R/B           
1 20443U 90005H   25363.13985288  .00000436  00000+0  15233-3 0  9999
2 20443  98.3222  60.8527 0011055  61.3105 298.9194 14.39811325882655
